[{"OBJECT_NAME":"SHIYAN-6 01 (SY-6 01)","OBJECT_ID":"2018-094B","EPOCH":"2026-03-09T23:04:36.967872","MEAN_MOTION":15.28649156,"ECCENTRICITY":0.00144834,"INCLINATION":97.3669,"RA_OF_ASC_NODE":84.0964,"ARG_OF_PERICENTER":135.6758,"MEAN_ANOMALY":224.5644,"EPHEMERIS_TYPE":0,"CLASSIFICATION_TYPE":"U","NORAD_CAT_ID":43711,"ELEMENT_SET_NO":999,"REV_AT_EPOCH":40632,"BSTAR":0.00024768444,"MEAN_MOTION_DOT":6.847e-5,"MEAN_MOTION_DDOT":0},{"OBJECT_NAME":"STARLINK-33827","OBJECT_ID":"2025-091Z","EPOCH":"2026-03-09T23:07:10.948224","MEAN_MOTION":15.27600532,"ECCENTRICITY":5.172e-5,"INCLINATION":42.9987,"RA_OF_ASC_NODE":51.0143,"ARG_OF_PERICENTER":255.0379,"MEAN_ANOMALY":105.0415,"EPHEMERIS_TYPE":0,"CLASSIFICATION_TYPE":"U","NORAD_CAT_ID":63798,"ELEMENT_SET_NO":999,"REV_AT_EPOCH":4894,"BSTAR":0.0011773084,"MEAN_MOTION_DOT":0.00032297,"MEAN_MOTION_DDOT":0}]
